STARLINK-1337
1 45582U 20025BD  26090.91671296  .00119163  00000+0  13032-2 0  9992
2 45582  53.0516 313.4973 0004790 181.7315 185.7604 15.62446726  5933
